0 COSMOS 1577
1 15077U 84067A   13281.75256238  .00000040  00000-0  26240-4 0  4298
2 15077 082.9600 035.0626 0034990 340.8231 130.1638 13.75294134216634
0 COSMOS 1577
1 15077U 84067A   13282.84651455  .00000023  00000-0  83740-5 0  4301
2 15077 082.9601 034.2536 0034939 337.6606 146.4921 13.75294387216780
0 COSMOS 1577
1 15077U 84067A   13283.86360144  .00000025  00000-0  10211-4 0  4311
2 15077 082.9604 033.5015 0034896 334.7418 142.2284 13.75294532216922
0 COSMOS 1577
1 15077U 84067A   13285.90314265  .00000031  00000-0  16635-4 0  4336
2 15077 082.9607 031.9934 0034773 328.9620 160.2041 13.75294482217208
0 COSMOS 1577
1 15077U 84067A   13286.92345786  .00000044  00000-0  30148-4 0  4341
2 15077 082.9608 031.2390 0034712 326.0536 171.9057 13.75294435217345
0 COSMOS 1577
1 15077U 84067A   13288.36279003  .00000069  00000-0  56415-4 0  4352
2 15077 082.9609 030.1750 0034676 321.8706 098.2904 13.75294472217540
0 COSMOS 1577
1 15077U 84067A   13289.45137087  .00000070  00000-0  57113-4 0  4367
2 15077 082.9608 029.3703 0034683 318.6760 088.0748 13.75294547217691
0 COSMOS 1577
1 15077U 84067A   13290.77378440  .00000086  00000-0  73755-4 0  4372
2 15077 082.9607 028.3926 0034642 314.8714 155.5366 13.75294698217871
0 COSMOS 1577
1 15077U 84067A   13292.20966416  .00000086  00000-0  74111-4 0  4386
2 15077 082.9605 027.3311 0034600 310.7209 064.8060 13.75294971218074
0 COSMOS 1577
1 15077U 84067A   13293.38413499  .00000082  00000-0  69662-4 0  4396
2 15077 082.9604 026.4626 0034536 307.3472 119.7779 13.75295263218234
0 COSMOS 1577
1 15077U 84067A   13294.39816025  .00000078  00000-0  65120-4 0  4402
2 15077 082.9604 025.7129 0034501 304.3977 100.3985 13.75295485218379
0 COSMOS 1577
1 15077U 84067A   13295.41691873  .00000054  00000-0  41031-4 0  4418
2 15077 082.9604 024.9596 0034485 301.4374 104.4510 13.75295597218517
